{
    "links": {
        "self": "http://www.neowsapp.com/rest/v1/neo/3560132?api_key=iIulBulltgU6a56xZRHN4H3l9WmuAYTsLGpBGhQ2"
    },
    "id": "3560132",
    "neo_reference_id": "3560132",
    "name": "(2011 FU9)",
    "designation": "2011 FU9",
    "nasa_jpl_url": "http://ssd.jpl.nasa.gov/sbdb.cgi?sstr=3560132",
    "absolute_magnitude_h": 26.4,
    "estimated_diameter": {
        "kilometers": {
            "estimated_diameter_min": 0.0139493823,
            "estimated_diameter_max": 0.0311917671
        },
        "meters": {
            "estimated_diameter_min": 13.9493822934,
            "estimated_diameter_max": 31.1917670523
        },
        "miles": {
            "estimated_diameter_min": 0.0086677416,
            "estimated_diameter_max": 0.0193816595
        },
        "feet": {
            "estimated_diameter_min": 45.7656914036,
            "estimated_diameter_max": 102.3351970157
        }
    },
    "is_potentially_hazardous_asteroid": false,
    "close_approach_data": [
        {
            "close_approach_date": "2007-03-08",
            "close_approach_date_full": "2007-Mar-08 09:07",
            "epoch_date_close_approach": 1173344820000,
            "relative_velocity": {
                "kilometers_per_second": "11.3312645758",
                "kilometers_per_hour": "40792.5524727313",
                "miles_per_hour": "25346.9057295146"
            },
            "miss_distance": {
                "astronomical": "0.0331387426",
                "lunar": "12.8909708714",
                "kilometers": "4957485.307438262",
                "miles": "3080438.5282095356"
            },
            "orbiting_body": "Mars"
        },
        {
            "close_approach_date": "2011-03-27",
            "close_approach_date_full": "2011-Mar-27 07:45",
            "epoch_date_close_approach": 1301211900000,
            "relative_velocity": {
                "kilometers_per_second": "4.8509665262",
                "kilometers_per_hour": "17463.4794942636",
                "miles_per_hour": "10851.1270224217"
            },
            "miss_distance": {
                "astronomical": "0.0447885802",
                "lunar": "17.4227576978",
                "kilometers": "6700276.198244174",
                "miles": "4163358.5720866412"
            },
            "orbiting_body": "Earth"
        },
        {
            "close_approach_date": "2061-03-03",
            "close_approach_date_full": "2061-Mar-03 12:37",
            "epoch_date_close_approach": 2877079020000,
            "relative_velocity": {
                "kilometers_per_second": "9.602953366",
                "kilometers_per_hour": "34570.6321174992",
                "miles_per_hour": "21480.8463843428"
            },
            "miss_distance": {
                "astronomical": "0.1814710301",
                "lunar": "70.5922307089",
                "kilometers": "27147679.569665887",
                "miles": "16868785.8685957606"
            },
            "orbiting_body": "Earth"
        }
    ],
    "orbital_data": {
        "orbit_id": "6",
        "orbit_determination_date": "2017-04-06 08:54:01",
        "first_observation_date": "2011-03-27",
        "last_observation_date": "2011-03-29",
        "data_arc_in_days": 2,
        "observations_used": 17,
        "orbit_uncertainty": "8",
        "minimum_orbit_intersection": ".0381606",
        "jupiter_tisserand_invariant": "4.150",
        "epoch_osculation": "2455648.5",
        "eccentricity": ".3817702580681633",
        "semi_major_axis": "1.678239248031359",
        "inclination": ".4066307670086431",
        "ascending_node_longitude": "82.17323086377117",
        "orbital_period": "794.1073890406683",
        "perihelion_distance": "1.037537417210307",
        "perihelion_argument": "109.8139865443711",
        "aphelion_distance": "2.318941078852411",
        "perihelion_time": "2455652.290050904078",
        "mean_anomaly": "358.2818213955717",
        "mean_motion": ".4533391893442808",
        "equinox": "J2000",
        "orbit_class": {
            "orbit_class_type": "AMO",
            "orbit_class_description": "Near-Earth asteroid orbits similar to that of 1221 Amor",
            "orbit_class_range": "1.017 AU < q (perihelion) < 1.3 AU"
        }
    },
    "is_sentry_object": false
}